GLOBALSTAR M084         
1 38040U 11080A   23233.46103519 -.00000089  00000+0  80640-4 0  9996
2 38040  51.9998 275.1915 0000432  81.6889  26.4689 12.62264976538878
GLOBALSTAR M080         
1 38041U 11080B   23233.43325476 -.00000089  00000+0  80058-4 0  9995
2 38041  52.0051 276.6480 0000350  54.4605  47.9971 12.62263674538851
GLOBALSTAR M082         
1 38042U 11080C   23234.15368017 -.00000106  00000+0 -97811-5 0  9991
2 38042  52.0049 229.8291 0000680 158.7341 278.7144 12.62270138539681
GLOBALSTAR M092         
1 38043U 11080D   23233.41463685 -.00000091  00000+0  72381-4 0  9993
2 38043  52.0098 322.4208 0000846  88.0912 349.5206 12.62271607538088
GLOBALSTAR M090         
1 38044U 11080E   23234.18084318 -.00000104  00000+0 -98793-6 0  9994
2 38044  51.9857 224.4119 0000184 154.6700 286.3453 12.62266997539676
GLOBALSTAR M086         
1 38045U 11080F   23233.34867963 -.00000102  00000+0  91177-5 0  9992
2 38045  51.9871 227.4443 0000883 288.6756 209.7131 12.62269561539572
GLOBALSTAR M097         
1 39072U 13005A   23233.18663701 -.00000078  00000+0  14412-3 0  9995
2 39072  52.0040 141.8094 0000200  70.1926 289.8962 12.62270202486789
GLOBALSTAR M093         
1 39073U 13005B   23234.18937601 -.00000081  00000+0  12475-3 0  9991
2 39073  51.9806 133.1237 0000051  33.9062 326.1808 12.62266107486900
